{
  "norad_id": 54203,
  "name": "STARLINK-5247",
  "history": [
    {
      "epoch": "2026-03-28T22:03:41.054688Z",
      "apogee_km": 540.5947776867151,
      "perigee_km": 538.8044415721433,
      "latitude_deg": 3.2019585307977426e-07,
      "longitude_deg": 110.3451734331757,
      "height_km": 540.5304334847962,
      "semi_major_axis_km": 6917.8366096294285,
      "eccentricity": 0.0001294,
      "inclination_deg": 53.2161,
      "raan_deg": 267.599,
      "arg_perigee_deg": 85.8458,
      "mean_anomaly_deg": 274.2682,
      "mean_motion_rev_day": 15.08854323
    }
  ]
}