{"fetched_at":"2026-03-30T06:02:59Z","count":15439,"tles":[{"name":"STARLINK-5247","line1":"1 54203U 22141AY  26087.91922517  .00001612  00000+0  11933-3 0  9992","line2":"2 54203  53.2161 267.5990 0001294  85.8458 274.2682 15.08854323188902","category":"Starlink"}]}